CCSDS_OMM_VERS = 2.0
CREATION_DATE = 2019-11-30T00:02:52
ORIGINATOR = N/A

OBJECT_NAME          = ISS (ZARYA)
OBJECT_ID            = 1998-067A
CENTER_NAME          = EARTH
REF_FRAME            = TEME
TIME_SYSTEM          = UTC
MEAN_ELEMENT_THEORY  = SGP/SGP4


EPOCH                = 2008-09-20T12:25:40.104192
MEAN_MOTION          =  15.72125391 [rev/day]
ECCENTRICITY         =   0.0006703
INCLINATION          =  51.6416 [deg]
RA_OF_ASC_NODE       = 247.4627 [deg]
ARG_OF_PERICENTER    = 130.5360 [deg]
MEAN_ANOMALY         = 325.0288 [deg]
GM                   = 398600.8 [km**3/s**2]

EPHEMERIS_TYPE       = 0
CLASSIFICATION_TYPE  = U
NORAD_CAT_ID         = 25544
ELEMENT_SET_NO       = 292
REV_AT_EPOCH         = 56353
BSTAR                = -0.0000 [1/ER]
MEAN_MOTION_DOT      = -0.00002182 [rev/day**2]
MEAN_MOTION_DDOT     = 0.0 [rev/day**3]

COV_REF_FRAME        = TNW
CX_X                 =  9.9880451167965161e-04
CY_X                 =  1.8437346057938915e-04
CY_Y                 =  5.7868137072326758e-05
CZ_X                 = -4.8795288045946602e-04
CZ_Y                 = -1.1099719520287708e-04
CZ_Z                 =  2.7789761647228466e-04
CX_DOT_X             = -4.7573232068550994e-07
CX_DOT_Y             = -5.2364326447464493e-08
CX_DOT_Z             =  2.3648700930908497e-07
CX_DOT_X_DOT         =  3.4291358620935171e-10
CY_DOT_X             =  7.5887344810486043e-07
CY_DOT_Y             =  1.5799355106807309e-07
CY_DOT_Z             = -3.5445200167746379e-07
CY_DOT_X_DOT         = -2.7484969299773428e-10
CY_DOT_Y_DOT         =  6.4883278243222926e-10
CZ_DOT_X             = -6.4298893957297031e-08
CZ_DOT_Y             = -7.3820247443762763e-08
CZ_DOT_Z             =  5.0414636669024323e-08
CZ_DOT_X_DOT         = -1.2836366472435056e-10
CZ_DOT_Y_DOT         = -1.5936716583964860e-10
CZ_DOT_Z_DOT         =  2.3705169051094249e-10
